SERVICIO GEOLOGICO COLOMBIANO- RED NACIONAL DE ACELEROGRAFOS DE COLOMBIA
SISMO DE BAJO BAUDO (CHOCO) 2004/11/15 09:06:57 ML=6.7
LATITUD DEL EVENTO(GRADOS): 4.768
LONGITUD DEL EVENTO(GRADOS): -77.724
PROFUNDIDAD DEL EVENTO (Km): 26.2
CODIGO DE LA ESTACION: RAC06
Estacion:CANCHAS PANAMERICANAS, CALI Geol:SUELO Topo:PLANA
LATITUD DE LA ESTACION (GRADOS): 3.4226
LONGITUD DE LA ESTACION (GRADOS): -76.5354
DISTANCIA EPICENTRAL: 199.271 km
DISTANCIA HIPOCENTRAL: 200.986 km
INTERVALO DE MUESTREO (SEGUNDOS): 0.005
NUMERO DE DATOS: 35200
DURACION (SEGUNDOS): 176
UNIDADES: cm/s^2
TIPO DE EQUIPO: ETNA
ESCALA MAXIMA (G): 2
CORRECCION DE LINEA BASE: LINEA BASE NO REMOVIDA
TIPO DE DATOS: NO CORREGIDO
         NS                  EW                  VER
[...]
     0.94604480          55.08089040         -15.29645920
     1.48153280          56.92625040         -15.51198960
     2.15292000          58.98284880         -15.70606240
     2.67505680          61.27738960         -15.77568080
     3.17668880          63.33541840         -15.92159280
     3.56769600          65.04583360         -16.09897600
     4.08744800          66.77436800         -16.28446560
     4.43506240          68.59827040         -16.41178160
     4.52709200          70.32346720         -16.68977760
     4.53281440          72.02100720         -16.84427280
     4.65965280          73.30036160         -17.03786880
     4.77457040          74.09906400         -17.17948880
     4.46748720          74.87154000         -16.82281520
     4.33397280          75.25920880         -16.78609840
     3.34692000          74.47528800         -16.30449280
     2.07185760          74.07379120         -16.08610160
     2.21681600          75.03271120         -15.77854160
     2.17723840          74.20873680         -14.91022080
     0.43630560          72.85594960         -15.15436160
    -0.47492960          72.48783120         -14.37807120
     0.41341760          71.41399360         -13.91553840
    -0.52547440          70.76311120         -13.80491280
    -1.62029280          69.50235360         -12.89320000
    -1.44243280          67.85964960         -13.00716400
    -1.85394320          67.06619280         -12.34626800
    -1.60169600          65.96422160         -11.91806800
    -1.10578560          64.23902480         -11.60526240
    -1.21259680          62.69550320         -10.96439360
    -1.06573120          62.14046480         -10.76269120
    -0.32472640          61.10143680          -9.96255840
     0.03814720          59.37624000          -9.62924960
     0.20313280          58.01582320          -9.14716720
     0.99086800          57.59334560          -8.64219680
     1.58071520          57.50131600          -8.08906560
     1.55639680          56.30683920          -7.43532160
     1.64651840          55.13763440          -7.18784320
     2.61926640          54.63027920          -6.63852720
     2.76374800          54.39853680          -6.48069360
     2.02941920          53.79104640          -6.09970080
     2.77042400          52.52027520          -5.61809520
     3.89766720          51.70917520          -5.22375120
     4.00495520          51.60999280          -4.64534720
     3.63731360          51.39875440          -4.21714800
     3.65543360          50.35257360          -3.54480720
     4.53519840          49.57866640          -2.94065440
     5.10406480          49.74508320          -2.23255120
     4.47225600          49.72791680          -1.48630160
     4.11558160          49.04270160          -0.78773520
     4.67824960          48.27928560          -0.10538080
     4.62388960          48.15912240           0.46014800
     3.71456160          48.06470880           1.04570400
     2.86245360          47.48344400           1.45912160
     2.78377520          46.73051840           1.97362880
     3.09419600          46.30422560           2.49767280
     2.40993520          46.29612000           2.95686720
     1.46818160          45.97425440           3.43751920
     1.44624720          45.24421680           3.92484640
     1.64365760          44.64769360           4.49132880
     1.27601600          44.44313040           4.92048240
     0.60033760          44.09217840           5.36060320
     0.37479440          43.23720960           5.73587440
     0.72908400          42.45519600           5.95712640
     0.81253040          42.00506240           6.09540960
     0.30660640          41.53060880           6.07347520
     0.10871920          40.61746560           5.99527360
     0.41532480          39.44635360           5.83410240
     0.63037840          38.60759760           5.72729120
     0.40674240          37.84990320           5.50460800
     0.20980800          36.65876400           5.18941840
     0.43106080          35.10570560           4.98580960
     0.80251680          33.79917120           4.65965280
     0.84638560          32.85026560           4.40883600
     0.54836240          31.43882720           4.16040400
     0.69236720          29.65688720           3.95250320
     1.05285680          28.09286080           3.94058240
     1.25646560          26.85308480           3.91864800
     1.04808800          25.49934400           3.92389280
     0.72145440          23.72598640           3.91244880
     0.96178080          22.01509440           3.88670000
     0.95224400          20.68138160           3.82184960
     0.44012080          19.52266720           3.71408480
    -0.04625360          18.06688320           3.52811840
    -0.41961680          16.46089520           3.28159360
    -0.81157680          15.22302640           3.05366480
    -1.22880960          14.29128640           2.78949760
    -1.81627280          13.22507840           2.51388560
    -2.41994880          11.98625600           2.11858720
    -2.79331200          10.88237760           1.60884880
    -3.30257440          10.14995600           1.05571760
    -3.76653680           9.66072080           0.44345840
    -4.12702560           8.74662400          -0.21314640
    -4.65679200           7.80391680          -0.90217600
    -5.01394240           7.58647920          -1.52921680
    -5.20229360           7.35855120          -2.19106640
    -5.58853120           6.65426240          -3.07083120
    -5.83744080           5.95092800          -4.03261200
    -5.91421120           5.44977200          -5.02586400
    -6.18076320           5.40113440          -6.11734400
    -6.65092480           5.21421440          -7.13872880
    -6.79206880           4.29964080          -8.12339760
    -6.68716400           3.89337520          -9.18102240
    -6.79111520           4.03976480         -10.04791280
    -6.68048880           3.85141360         -10.97583760
    -6.94274880           3.48424880         -12.05396640
    -6.88838960           3.11326960         -12.89320000
    -6.20174400           3.19385520         -13.85021200
    -6.17265680           3.48138800         -14.70947280
    -6.08253440           3.25822800         -15.51914240
    -5.66339520           3.08799760         -16.36934320
    -5.11932400           3.33499920         -16.93344080
    -4.82273120           3.54719200         -17.68827440
    -4.71115120           3.44276400         -18.39065520
    -4.33921840           3.24916800         -19.19412640
    -4.00209440           3.52430320         -20.03717440
    -3.73125040           3.99351120         -20.68328880
    -3.66306320           4.09078560         -21.54350320
    -3.19385520           4.01687600         -22.23062480
    -2.65121440           4.47559360         -22.90534960
    -2.40898160           5.21421440         -23.46038800
    -1.98936480           5.50365440         -24.01828800
    -1.62267680           5.84650000         -24.70016480
    -0.86259840           6.39629360         -25.11310560
    -0.15926400           7.05289840         -25.63142800
     0.32234160           7.46011760         -26.06153520
     1.16252880           7.55167040         -26.58462560
     1.86920160           7.96270400         -27.11057680
     2.63214080           8.25119040         -27.54211440
     3.42512160           8.27074080         -28.13196160
     4.05550000           8.00180400         -28.61738240
     4.71830400           7.62844080         -29.10137200
     5.36727920           7.21740720         -29.48284160
     6.03961920           6.47258720         -29.88195440
     6.53076160           5.78498880         -30.12800240
     6.94513360           4.75788080         -30.39693840
     7.22694400           3.67879840         -30.84564240
     7.45010400           2.87103680         -31.07643120
     7.84540160           1.63173680         -31.43024480
     8.00704960           0.24747840         -31.81457520
     8.13818000          -1.00612640         -32.06539120
     8.31747040          -2.27212880         -32.36389200
     8.48054880          -3.61490240         -32.56988560
     8.52251040          -4.98962400         -32.67574320
     8.48722480          -6.28089920         -32.76729600
     8.75759120          -7.57074320         -32.73057920
     8.65459440          -8.85486640         -32.66763680
     8.46004480         -10.05363440         -32.50503520
     8.53586160         -11.06119120         -32.20319760
     8.41140720         -11.86752320         -31.84795360
     8.06808480         -12.56275200         -31.38542160
     7.65657440         -13.31329360         -30.91621360
     7.64131520         -14.10245920         -30.46703360
     7.59124720         -14.53638080         -29.96921520
     7.27224320         -14.84870880         -29.45041680
     6.86931600         -15.29264480         -28.99694480
     6.62040720         -15.61832400         -28.31506720
     6.69670080         -15.80381360         -27.65369440
     6.60419440         -15.90251920         -27.00090400
     6.56414000         -16.20292640         -26.30043040
     6.52456320         -16.58868800         -25.87175360
     6.34241120         -16.75462720         -25.20036720
     6.26468640         -16.89863200         -24.64628240
     6.26277920         -17.38834400         -24.22523520
     6.26182560         -18.09549360         -23.66447440
     6.17504080         -18.54658160         -23.23436720
     6.30521760         -19.21081520         -22.65405680
     6.23559920         -20.11108400         -22.16577520
     5.78975680         -20.90787920         -21.69132240
     5.86366640         -21.85249360         -21.14009840
     6.06489200         -22.89247520         -20.66755280
     5.84840800         -24.27911760         -20.10917680
     5.60617440         -25.94232560         -19.64235280
     5.43403600         -27.57978400         -19.13499840
     5.54704640         -29.20866000         -18.59903360
     5.63526160         -30.93576400         -18.00537120
     5.31816480         -33.04100000         -17.34542880
     5.08976000         -35.25829280         -16.88385040
     5.09023680         -37.40358320         -16.41559600
     5.08737600         -39.44492320         -16.00790000
     4.73356240         -41.39280320         -15.72227440
     4.22859200         -43.50852960         -15.48767120
     3.97253040         -45.57800320         -15.34223520
     3.76367600         -47.63603200         -15.16819040
     3.47232800         -49.82090000         -14.96791840
     3.13663520         -51.81264880         -14.63270160
     2.87294400         -53.59840400         -14.16540160
     2.59971600         -55.28926880         -13.72146640
     2.17056240         -57.21664400         -13.30852480
     1.80530560         -59.39149840         -13.04817200
     1.72328960         -61.12527840         -12.77399040
     1.63173680         -62.77894960         -12.55702960
     1.23548480         -64.64767440         -12.61234320
     0.82111360         -66.38670000         -12.55035440
     0.64611440         -68.19677360         -12.44497280
     0.43964400         -69.95201120         -12.34817520
     0.07390960         -71.70963280         -12.13026080
    -0.27465840         -73.57072800         -11.96336720
    -0.52976640         -75.27971280         -11.72018080
    -0.74768080         -76.74741760         -11.34109520
    -1.19733840         -78.21035360         -10.94770400
    -1.60217280         -79.88929760         -10.55669760
    -1.75523760         -81.35414160         -10.14471040
    -1.99937840         -82.63397200          -9.75704160
    -2.30073920         -83.98866640          -9.41848720
    -2.55155600         -85.31761200          -9.03177280
    -2.66504320         -86.57455440          -8.56733360
    -2.67410240         -87.71800960          -8.14724000
    -2.60019280         -88.82570240          -7.72476160
    -2.45142000         -89.96725120          -7.17496880
    -2.34460800         -91.23802160          -6.63137440
    -2.12478640         -92.51642240          -6.17027280
    -1.78909280         -93.62459200          -5.61809520
    -1.38950320         -94.74420560          -4.99677680
    -0.98991360         -96.09699280          -4.48703760
    -0.56219120         -97.53942480          -3.88908400
     0.06008160         -98.83880640          -3.27062640
     0.81157680        -100.04997280          -2.70223600
     1.51872640        -101.23062160          -2.11095840
     2.31742880        -102.22053520          -1.50203680
     3.35025760        -103.17468640          -0.77533760
     4.25767920        -104.20465440          -0.26369120
     5.12361520        -105.12161280           0.23365040
     6.09111760        -105.92079200           0.78296640
     6.91795360        -106.45246480           1.23310080
     7.61938080        -106.96935680           1.81674960
     8.16917440        -107.68699680           2.34842320
     8.36229360        -108.31022240           2.84147280
     8.67414480        -108.68215600           3.39460400
     9.13429280        -108.88004320           3.85618240
     9.08756240        -109.06839360           4.10318400
     9.00936160        -109.22718080           4.32586640
     8.97121440        -109.41505440           4.42886320
     8.68225120        -109.53807840           4.38022640
     8.56065760        -109.41028560           4.42552560
     8.57448560        -109.03739920           4.45795040
     8.31127200        -108.66165200           4.42790960
     7.90119200        -108.30831520           4.35733760
     7.66372720        -107.75995280           4.41122080
     7.35902800        -106.99367520           4.39786880
     6.89888000        -106.03570960           4.46128880
     6.66284560        -105.15928240           4.71067440
     6.50692000        -104.38966720           4.74357600
     6.11782080        -103.44266880           4.87232240
     5.77878960        -102.25391360           5.06734880
     5.60045280        -101.13763840           5.23853280
     5.35535840        -100.20732880           5.44261920
     5.03730800         -99.24411760           5.57947120
     4.75645040         -98.35004800           5.81646000
     4.34494000         -97.56088240           5.95808000
     3.94058240         -96.75502800           6.11305200
     3.77130480         -95.75843840           6.42061200
     3.51905840         -94.68269360           6.57987600
     3.18765680         -93.59884240           6.62374480
     3.01933280         -92.62418720           6.58178320
     2.89678560         -91.88413600           6.40773760
     2.82907520         -90.72542160           6.15024560
     2.70366640         -89.45703520           5.97476960
     2.53152880         -88.27114080           5.58900800
     2.43902240         -87.20493280           5.02252560
     2.04134000         -86.11297600           4.49800480
     1.88493760         -84.63954960           4.09221680
     1.35469440         -83.34541360           3.82089600
     0.09727440         -81.51054400           3.60059760
     0.08773840         -79.48637040           3.51953520
     0.92077280         -77.22711600           3.35454960
     1.92356080         -74.65648640           4.57239120
     2.80284880         -72.05104800           4.82606880
     1.74474720         -69.45466960           4.18806080
     1.63459760         -68.06755040           5.60617440
     2.44808160         -66.79678000           4.90665440
    -1.03139840         -65.52362480           3.74078720
    -1.89781200         -61.12289440           3.32784640
     2.47430800         -52.73389840           1.74951520
     5.67388560         -50.59051520           3.28350080
     6.18219360         -54.61311360           5.07831600
     3.00836560         -52.80208560           5.85126880
     2.61116000         -45.94945920           7.73954400
     5.72061520         -42.86289200           6.58893600
     7.27748880         -43.99728800           6.78491600
     5.30815120         -42.02795040           6.88314400
     1.26075760         -34.57260160           6.12020480
     4.23002240         -29.29925920           9.36937360
    10.58149360         -28.26070800           9.73606080
    10.94627360         -26.42631520           9.60159280
     7.77244560         -23.22626080           9.51337840
     8.62646080         -20.53070080           8.31937760
    12.92562480         -17.40264880           8.59022160
    13.76724240         -13.44251600           8.18014160
    11.90853120          -9.23061360           8.31651680
    11.68966320          -4.66251360           8.28218480
    14.14156000          -0.99802000           9.19294320
    15.63453680           1.86967840           9.51242480
    14.87588880           4.01639920           9.38177120
    15.07282240           5.85556000          10.33973680
    17.32921600          10.21528240           9.95492960
    18.37682720          16.81947680          11.27910640
    15.89155200          21.41952480          13.38005040
    13.50116720          21.08669280          14.36471920
    14.30845280          20.39289440          16.64447760
    15.94686480          24.64389840          18.56136320
    15.14911680          29.69551120          18.86272400
    13.96894480          31.51798240          19.04201520
    13.08393440          31.35871920          18.03922640
    12.26186720          32.29999520          16.46089520
    12.91370400          35.74371360          15.88487600
    14.01805840          37.90855440          14.92500320
    14.94884480          37.24575040          14.26362960
    14.49584960          36.77940400          14.24503360
    14.58787920          37.76121120          14.46676240
    15.72704320          39.54267520          14.47010080
    15.55252080          41.60594960          13.71574400
    15.07377600          43.27106480          13.36717600
    15.14434800          45.48406640          13.56935520
    15.32411600          48.43187360          14.23168160
    14.57929600          50.53186400          14.76383200
    13.46778880          51.64051040          14.53495040
    12.29524640          52.24418640          13.62562160
    11.37018240          53.30324160          12.39013680
    11.23762160          55.06420160          11.40928240
    11.51561760          56.90097840          10.61677920
    12.30192160          58.50887280          10.24055520
    13.31949200          60.17875680          10.32495520
    14.26219920          61.65409120          10.63537600
    14.52970480          62.62207040          11.00063360
    14.52732080          63.46035040          11.13939280
    14.82772800          63.77553920          11.22665440
    15.15293120          64.49699440          11.08741760
    15.24734480          65.96565280          10.67638400
    15.02037040          67.11721440          10.34975040
    14.96219600          67.38138160           9.84239600
    14.53876480          66.76244720           9.56630720
    13.21268080          65.74392320           9.46760160
